OBJECT_NAME,OBJECT_ID,EPOCH,MEAN_MOTION,ECCENTRICITY,INCLINATION,RA_OF_ASC_NODE,ARG_OF_PERICENTER,MEAN_ANOMALY,EPHEMERIS_TYPE,CLASSIFICATION_TYPE,NORAD_CAT_ID,ELEMENT_SET_NO,REV_AT_EPOCH,BSTAR,MEAN_MOTION_DOT,MEAN_MOTION_DDOT
STARLINK-6253,2023-088AM,2026-07-13T03:00:40.376448,15.27578089,.00009354,43.0021,107.7628,252.2690,107.8060,0,U,57083,999,16968,.17271466E-4,.213E-5,0
STARLINK-6240,2023-088AN,2026-07-13T22:58:47.712288,15.27581905,.0001408,43.0033,102.8409,263.9049,96.1642,0,U,57084,999,16981,.45558E-4,.992E-5,0
STARLINK-6232,2023-088AP,2026-07-14T00:10:45.516000,15.27580781,.0001478,43.0043,102.3553,269.7674,90.3008,0,U,57085,999,16982,.27434E-5,-.187E-5,0
STARLINK-6247,2023-088AQ,2026-07-13T23:09:54.662400,15.27576059,.0000981,43.0019,102.8949,241.4341,118.6412,0,U,57086,999,16981,.16326E-5,-.217E-5,0
STARLINK-6251,2023-088AR,2026-07-13T03:52:16.320864,15.27582253,.0001544,43.0044,107.1828,272.9898,87.0777,0,U,57087,999,16969,.10406E-4,.24E-6,0
STARLINK-6257,2023-088AS,2026-07-14T03:57:55.981728,15.27576756,.0000576,43.0007,101.8151,252.3621,107.7168,0,U,57088,999,16984,-.19657E-4,-.803E-5,0
STARLINK-6259,2023-088AT,2026-07-13T04:18:10.698336,15.27576053,.0001126,43.0025,107.3133,275.1275,84.9448,0,U,57089,999,16969,.36193E-4,.734E-5,0
STARLINK-6254,2023-088AU,2026-07-13T03:57:49.322880,15.27577914,.0001529,43.0051,107.2051,263.1087,96.9591,0,U,57090,999,16969,.64889E-4,.1524E-4,0
STARLINK-6262,2023-088AV,2026-07-12T23:24:36.420192,15.27578346,.00010875,43.0023,108.3633,269.3673,90.7054,0,U,57091,999,16966,-.13952251E-4,-.646E-5,0
STARLINK-6225,2023-088AW,2026-07-13T22:51:24.055200,15.27580194,.0001302,43.0020,102.7974,271.0784,88.9919,0,U,57092,999,16981,-.26096E-5,-.334E-5,0
STARLINK-6229,2023-088AX,2026-07-13T23:13:36.666336,15.27575890,.0001095,43.0015,102.9075,246.8178,113.2558,0,U,57093,999,16981,.78794E-5,-.45E-6,0
STARLINK-6235,2023-088AY,2026-07-13T04:29:17.041056,15.27576729,.0001004,43.0021,107.3655,266.5269,93.5468,0,U,57094,999,16969,.26689E-4,.472E-5,0
STARLINK-6132,2023-090A,2026-07-13T16:00:01.998720,15.27549831,.0001454,43.0020,290.1780,275.0402,248.5879,0,U,57101,999,577,.18002E-2,.49564E-3,0
STARLINK-6111,2023-090B,2026-07-13T07:37:34.479552,15.27565753,.00015022,43.0044,292.2498,286.6347,73.4340,0,U,57102,999,16954,.41004783E-4,.866E-5,0
STARLINK-6130,2023-090D,2026-07-14T05:30:13.243680,15.27571585,.0001384,43.0032,287.0480,268.1836,91.8857,0,U,57104,999,16967,-.10865E-4,-.561E-5,0
STARLINK-6097,2023-090E,2026-07-13T06:07:06.796128,15.27577328,.0001162,43.0029,292.6315,281.2619,78.8102,0,U,57105,999,16953,.30144E-4,.567E-5,0
STARLINK-6118,2023-090F,2026-07-13T07:24:37.276128,15.27575505,.0001175,43.0031,292.1781,270.5343,89.5374,0,U,57106,999,16954,.19141E-4,.265E-5,0
STARLINK-6131,2023-090G,2026-07-13T06:49:29.810784,15.27560154,.0001671,43.0019,291.9906,270.5122,89.5538,0,U,57107,999,16954,-.69172E-4,-.2164E-4,0
STARLINK-6099,2023-090H,2026-07-13T13:35:41.520192,15.27579261,.0001142,43.0021,290.6701,280.5607,79.5116,0,U,57108,999,16958,.2464E-4,.416E-5,0
STARLINK-6139,2023-090J,2026-07-13T17:32:06.995328,15.27576264,.0002025,43.0044,290.1756,282.4175,77.6450,0,U,57109,999,16960,.28235E-4,.514E-5,0
STARLINK-6134,2023-090K,2026-07-13T07:13:31.057824,15.27579792,.000103,43.0025,292.1222,274.4003,85.6731,0,U,57110,999,16954,.26123E-4,.457E-5,0
STARLINK-6140,2023-090L,2026-07-13T07:06:06.575616,15.27579993,.0001467,43.0028,292.0772,257.9371,102.1316,0,U,57111,999,16954,.14557E-4,.138E-5,0
STARLINK-6141,2023-090M,2026-07-14T05:28:21.635616,15.27576195,.0001066,43.0023,287.0347,249.7562,110.3175,0,U,57112,999,16968,-.60364E-5,-.428E-5,0
STARLINK-6142,2023-090N,2026-07-13T06:55:00.791904,15.27579478,.000136,43.0023,292.0207,264.8978,95.1718,0,U,57113,999,16954,.27995E-4,.508E-5,0
STARLINK-6125,2023-090P,2026-07-13T17:59:39.905952,15.27573384,.0001095,42.9997,289.4639,255.6809,104.3921,0,U,57114,999,16961,.11945E-4,.67E-6,0
STARLINK-6085,2023-090Q,2026-07-13T14:30:08.792352,15.18402071,.0021134,42.9982,285.0549,296.9826,62.8865,0,U,57115,999,16965,.6094E-3,.12622E-3,0
STARLINK-6129,2023-090R,2026-07-13T08:18:04.000032,15.27579140,.00016144,43.0009,291.5982,270.1630,89.9036,0,U,57116,999,16955,.19431319E-4,.273E-5,0
STARLINK-6148,2023-090S,2026-07-13T08:19:55.283232,15.27574410,.00013799,43.0015,291.6027,266.4239,93.6455,0,U,57117,999,16954,.11730059E-4,.61E-6,0
STARLINK-6150,2023-090U,2026-07-13T13:59:43.060992,15.27590939,.0001405,43.0016,290.7837,215.1495,144.9264,0,U,57119,999,16958,.6065E-4,.1408E-4,0
STARLINK-6147,2023-090V,2026-07-13T18:08:53.170080,15.27577555,.0003797,43.0075,289.5132,292.9947,67.0504,0,U,57120,999,16961,.74635E-4,.1791E-4,0
STARLINK-6152,2023-090W,2026-07-13T08:16:13.057248,15.27576957,.00015914,43.0011,291.5817,272.3405,87.7264,0,U,57121,999,16936,.42442024E-4,.906E-5,0
STARLINK-6149,2023-090X,2026-07-13T07:54:13.358592,15.27576339,.00014338,43.0042,292.3205,274.6640,85.4048,0,U,57122,999,16954,.40563261E-4,.854E-5,0
STARLINK-6154,2023-090Y,2026-07-13T07:20:55.053600,15.27577067,.0001043,43.0021,292.1482,263.0004,97.0729,0,U,57123,999,16935,-.37036E-5,-.364E-5,0
STARLINK-6146,2023-090Z,2026-07-13T07:15:21.846816,15.27578191,.0000824,42.9999,292.1211,255.7423,104.3337,0,U,57124,999,16954,.16111E-4,.181E-5,0
STARLINK-6100,2023-090AA,2026-07-13T05:22:17.560704,15.27579976,.0001827,43.0038,274.2691,279.6600,80.4045,0,U,57125,999,16955,.50561E-4,.1129E-4,0
STARLINK-6167,2023-090AB,2026-07-13T08:05:18.286080,15.27588397,.00025204,43.0054,292.3725,292.0483,68.0101,0,U,57126,999,16954,.9789218E-4,.2433E-4,0
STARLINK-6165,2023-090AC,2026-07-13T08:32:52.380384,15.27579382,.00013323,43.0026,291.6626,272.5786,87.4913,0,U,57127,999,16936,.2795586E-4,.507E-5,0
STARLINK-6163,2023-090AD,2026-07-13T06:47:37.603968,15.27577265,.0001394,43.0027,291.9731,269.3493,90.7199,0,U,57128,999,16935,.29266E-4,.543E-5,0
STARLINK-6170,2023-090AE,2026-07-14T04:27:05.624064,15.27576500,.0001677,43.0041,269.4505,291.5630,68.5042,0,U,57129,999,16969,-.10556E-4,-.553E-5,0
STARLINK-6172,2023-090AF,2026-07-13T08:27:17.374752,15.27594783,.00020212,43.0005,291.6357,283.2670,76.7956,0,U,57130,999,16936,.91776375E-4,.2265E-4,0
STARLINK-6162,2023-090AG,2026-07-14T04:37:59.475072,15.27572679,.0002172,43.0053,268.6510,276.9931,83.0673,0,U,57131,999,16970,.31431E-5,-.176E-5,0
STARLINK-6128,2023-090AH,2026-07-13T18:03:21.751776,15.27571536,.0001245,43.0021,289.4764,265.8995,94.1714,0,U,57132,999,16942,.27625E-4,.498E-5,0
STARLINK-6143,2023-090AJ,2026-07-13T13:18:37.612800,15.27577547,.0001679,43.0025,272.4557,274.9744,85.0916,0,U,57133,999,16960,.2577E-4,.447E-5,0
STARLINK-6133,2023-090AK,2026-07-14T04:32:26.335680,15.27576325,.0001862,43.0054,268.6256,295.8533,64.2127,0,U,57134,999,16970,-.72679E-5,-.462E-5,0
STARLINK-6127,2023-090AL,2026-07-13T13:03:50.423040,15.27569803,.0001093,43.0017,272.3775,268.3937,91.6790,0,U,57135,999,16960,.14229E-3,.3654E-4,0
STARLINK-6112,2023-090AM,2026-07-14T04:43:32.820960,15.27588527,.0001744,43.0043,268.6783,292.1334,67.9332,0,U,57136,999,16972,.19302E-4,.269E-5,0
STARLINK-5347,2023-090AN,2026-07-14T04:30:35.074080,15.27575892,.0001453,43.0034,268.6113,286.0805,73.9887,0,U,57137,999,16970,-.21758E-5,-.322E-5,0
STARLINK-5336,2023-090AP,2026-07-13T13:07:31.486944,15.27577553,.0001621,43.0020,272.3983,278.4531,81.6137,0,U,57138,999,16960,.45717E-4,.996E-5,0
STARLINK-5355,2023-090AQ,2026-07-14T04:34:16.341024,15.27583956,.0001554,43.0040,268.6288,281.1791,78.8886,0,U,57139,999,16970,.31742E-4,.611E-5,0
STARLINK-5357,2023-090AS,2026-07-14T04:36:07.744320,15.27581392,.0000841,43.0043,268.6373,265.0459,95.0296,0,U,57141,999,16970,.18211E-4,.239E-5,0
STARLINK-5361,2023-090AT,2026-07-14T04:41:40.587360,15.27584977,.0003519,43.0095,268.6692,310.4376,49.6168,0,U,57142,999,16970,.3724E-4,.762E-5,0
STARLINK-5358,2023-090AU,2026-07-14T04:47:14.251200,15.27575967,.0001967,43.0036,268.6910,279.8849,80.1780,0,U,57143,999,16970,.16522E-4,.192E-5,0
STARLINK-5150,2023-090AV,2026-07-14T04:39:50.118048,15.27576440,.0001928,43.0048,268.6555,282.8577,77.2059,0,U,57144,999,16970,-.11049E-4,-.566E-5,0
STARLINK-5768,2023-090AW,2026-07-14T05:24:14.782176,15.27571537,.000115,43.0004,268.8746,246.7235,113.3496,0,U,57145,999,16970,-.15287E-5,-.304E-5,0
STARLINK-5791,2023-090AX,2026-07-13T13:11:13.592832,15.27575919,.0001909,43.0038,272.4077,276.7607,83.3027,0,U,57146,999,16960,.24267E-4,.405E-5,0
STARLINK-5765,2023-090AY,2026-07-13T06:06:42.134976,15.27575695,.0000717,42.9982,274.4847,250.9223,109.1551,0,U,57147,999,16974,-.12667E-4,-.61E-5,0
STARLINK-5788,2023-090AZ,2026-07-13T06:12:14.965920,15.27577967,.0001334,43.0031,274.5208,263.4937,96.5763,0,U,57148,999,16955,-.67868E-5,-.449E-5,0
STARLINK-5778,2023-090BA,2026-07-13T04:49:51.674592,15.27570742,.0001187,43.0013,259.9656,266.6476,93.4240,0,U,57149,999,16990,.32959E-4,.645E-5,0
STARLINK-5780,2023-090BB,2026-07-13T13:44:57.270048,15.27579768,.0001773,43.0024,279.4043,273.1034,86.9614,0,U,57150,999,16971,.23704E-4,.39E-5,0
STARLINK-5776,2023-090BC,2026-07-14T05:18:41.845824,15.27577432,.0000838,43.0031,268.8505,277.9978,82.0779,0,U,57151,999,16989,-.65484E-5,-.442E-5,0
STARLINK-6164,2023-090BD,2026-07-14T04:58:20.339040,15.27577871,.0001853,43.0033,268.7435,277.5730,82.4911,0,U,57152,999,16989,.27395E-4,.492E-5,0
STARLINK-5879,2023-090BE,2026-07-14T03:59:21.077952,15.27575583,.000214,43.0018,257.9861,296.5032,63.5600,0,U,57153,999,16951,.33509E-4,.66E-5,0
STARLINK-6106,2023-090BF,2026-07-13T05:57:26.915616,15.27575411,.0001179,43.0014,274.4420,260.0185,100.0533,0,U,57154,999,16974,.43195E-4,.927E-5,0
STARLINK-6108,2023-090BG,2026-07-14T04:21:32.502816,15.27574281,.0001031,43.0022,269.4057,223.7553,136.3217,0,U,57155,999,16988,-.54393E-5,-.412E-5,0
STARLINK-6137,2023-090BH,2026-07-14T04:00:01.998720,15.60762408,.0001451,43.0033,265.6676,253.9639,170.9581,0,U,57156,999,574,.13748E-1,.1299737E-1,0
